HULIANWANG DIGUI-120    
1 67060U 25295B   25349.71694909  .00000000  00000+0  66896-4 0  9998
2 67060  50.0050 359.6709 0013223 257.2650 102.6786 14.25706335   543
HULIANWANG DIGUI-121    
1 67061U 25295C   25349.71692468 -.00000001  00000+0  66638-4 0  9993
2 67061  50.0012 359.6606 0013268 256.3366 103.6071 14.25729079   549
HULIANWANG DIGUI-122    
1 67062U 25295D   25354.48297919  .00000085  00000+0  10262-3 0  9998
2 67062  50.0054 339.5420 0013162 280.5442  79.3989 14.25755800  1228
HULIANWANG DIGUI-123    
1 67063U 25295E   25354.41210654  .00000083  00000+0  10143-3 0  9999
2 67063  50.0061 339.8363 0012475 279.4734  80.4770 14.25888564  1217
HULIANWANG DIGUI-124    
1 67064U 25295F   25354.41174911 -.00000620  00000+0 -19161-3 0  9993
2 67064  50.0035 339.8207 0012088 274.1974  85.7558 14.25949061  1216
HULIANWANG DIGUI-125    
1 67065U 25295G   25354.41172183  .00000068  00000+0  95242-4 0  9992
2 67065  50.0011 339.8190 0012269 280.1734  79.7796 14.25954175  1213
HULIANWANG DIGUI-126    
1 67066U 25295H   25354.41086117  .00000067  00000+0  94401-4 0  9999
2 67066  50.0014 339.8136 0011434 277.2306  82.7308 14.26097170  1219
HULIANWANG DIGUI-127    
1 67067U 25295J   25354.41005076 -.00000802  00000+0 -26559-3 0  9992
2 67067  50.0053 339.8165 0010881 280.9688  79.0002 14.26250846  1215
CZ-12 R/B               
1 67068U 25295K   25354.39290682 -.00000138  00000+0  91418-5 0  9998
2 67068  49.9943 339.0702 0056863 163.3207 196.9600 14.41128985  1219
XIWANG-5 02             
1 67069U 25296A   25354.47174525  .00008428  00000+0  42922-3 0  9999
2 67069  41.3527  57.4691 0014484  80.4418 279.8039 15.16821178  1133
DEAR-5                  
1 67070U 25296B   25354.47095281  .00004526  00000+0  23487-3 0  9992
2 67070  41.3552  57.4652 0016119  81.8646 278.4003 15.16881639  1128
KZ-11 R/B               
1 67071U 25296C   25354.56665690  .06524805  65559-5  50215-3 0  9998
2 67071  41.3222  59.4281 0581991   8.2061 352.7803 15.10636457  1115
